,index,name,zipcode,lat,long,Geography,Median income (dollars); Estimate; Households
215,408,WORLD TRADE CENTER, 10007,40.71256392680817,-74.00974461517701,ZCTA5 10007,242644.0
217,147,METROPOLITAN AV STATION, 11211,40.71277400073426,-73.9514239994525,ZCTA5 10007,242644.0
225,360,CHAMBERS STREET STATION, 10007,40.71411100077402,-74.00858473570133,ZCTA5 10007,242644.0
224,71,METROPOLITAN AV STATION, 11211,40.71407200064717,-73.95024799996972,ZCTA5 10007,242644.0
223,63,UNION TURNPIKE - KEW GARDENS STATION, 11415,40.71403481957103,-73.8303702709878,ZCTA5 10007,242644.0
221,415,CITY HALL, 10007,40.71327233111697,-74.00698581780337,ZCTA5 10007,242644.0
218,402,WORLD TRADE CENTER, 10007,40.713050999077694,-74.00881099997359,ZCTA5 10007,242644.0
216,278,JAMAICA-179 ST, 11432,40.712645666744045,-73.78381700176453,ZCTA5 10007,242644.0
193,305,MORGAN AVENUE SUBWAY STATION, 11237,40.70615166680729,-73.93314700024209,ZCTA5 10005,154213.0
191,245,SUTPHIN BLVD, 11435,40.70541799906764,-73.81083299897232,ZCTA5 10005,154213.0
192,70,BROADWAY, 11206,40.70612657627417,-73.95031225606621,ZCTA5 10005,154213.0
194,422,FRESH POND ROAD STATION, 11385,40.70622599823048,-73.89589800171959,ZCTA5 10005,154213.0
195,427,BROAD ST, 10005,40.70647600110601,-74.01105599991755,ZCTA5 10005,154213.0
212,423,MIDDLE VILLAGE - METROPOLITAN AV, 11381,40.71143130505826,-73.8895772297809,ZCTA5 10006,145893.0
214,425,CORTLANDT STREET STATION, 10006,40.7118350008202,-74.01218800112292,ZCTA5 10006,145893.0
210,428,CORTLANDT STREET STATION, 10006,40.710512984152395,-74.01113196473266,ZCTA5 10006,145893.0
213,148,GRAHAM AV, 11211,40.71157600064823,-73.94049699874644,ZCTA5 10006,145893.0
209,426,CORTLANDT STREET STATION, 10006,40.71036799882213,-74.00950899856461,ZCTA5 10006,145893.0
198,139,HEWES ST, 11211,40.706889998054,-73.95348800038455,ZCTA5 10006,145893.0
199,151,MONTROSE AVENUE STATION, 11206,40.707391064384545,-73.93979284713505,ZCTA5 10006,145893.0
200,424,RECTOR ST, 10006,40.707512999521775,-74.01378300119742,ZCTA5 10006,145893.0
201,419,WALL STREET STATION, 10006,40.70755700086603,-74.01186199860112,ZCTA5 10006,145893.0
202,186,PARSONS BLVD, 11432,40.707571999615695,-73.80328900021884,ZCTA5 10006,145893.0
203,421,RECTOR ST, 10006,40.707744756294474,-74.01297456253796,ZCTA5 10006,145893.0
211,187,169 STREET STATION, 11432,40.710517502784,-73.7934741992772,ZCTA5 10006,145893.0
139,82,111 ST, 11419,40.684331000012385,-73.83216299845388,ZCTA5 10004,140450.0
131,446,FRANKLIN AV STATION, 11238,40.68137966658742,-73.95684800014614,ZCTA5 10004,140450.0
132,12,NORWOOD AVENUE STATION, 11208,40.68152000045683,-73.87962599910783,ZCTA5 10004,140450.0
133,97,104 ST-OXFORD AV STATION, 11417,40.6817110010912,-73.83768300060997,ZCTA5 10004,140450.0
134,34,CHAUNCEY ST, 11207,40.68285130087804,-73.91038357033376,ZCTA5 10004,140450.0
135,281,BUSHWICK AV-ABERDEEN ST, 11207,40.68286062551184,-73.90526176305106,ZCTA5 10004,140450.0
136,226,CRESCENT ST, 11208,40.68315265707736,-73.87392925215778,ZCTA5 10004,140450.0
137,447,CLINTON - WASHINGTON AVE, 11238,40.68326299912644,-73.96583799857275,ZCTA5 10004,140450.0
138,121,ATLANTIC AVENUE BARCLAYS CENTER STATION, 11217,40.68366566727944,-73.97880999956767,ZCTA5 10004,140450.0
145,74,HALSEY STREET STATION, 11221,40.68641527070434,-73.91663888421941,ZCTA5 10004,140450.0
140,115,ATLANTIC AVENUE BARCLAYS CENTER STATION, 11217,40.68442016526762,-73.97754993539385,ZCTA5 10004,140450.0
141,120,ATLANTIC AVENUE BARCLAYS CENTER STATION, 11217,40.684488323453685,-73.97678343963167,ZCTA5 10004,140450.0
142,195,LEFFERTS BLVD STATION, 11419,40.68595099878361,-73.82579799906613,ZCTA5 10004,140450.0
143,375,BERGEN ST STATION, 11201,40.68611054725977,-73.99075649573565,ZCTA5 10004,140450.0
144,453,LAFAYETTE AVENUE STATION C, 11217,40.68611300020567,-73.97394599849406,ZCTA5 10004,140450.0
129,287,FRANKLIN AV STATION, 11238,40.68059566598263,-73.95582700110425,ZCTA5 10004,140450.0
146,117,FULTON ST, 11217,40.68711899950771,-73.97537499833147,ZCTA5 10004,140450.0
147,118,CLINTON-WASHINGTON AVENUES STATION, 11205,40.68809400106055,-73.9667959986695,ZCTA5 10004,140450.0
130,3,BERGEN STREET STATION, 11217,40.68086213682956,-73.97499915116808,ZCTA5 10004,140450.0
121,223,BROADWAY JUNCTION, 11207,40.67936600147369,-73.90428999746412,ZCTA5 10004,140450.0
128,126,NOSTRAND AV, 11216,40.68043800006225,-73.95042600099683,ZCTA5 10004,140450.0
127,103,ROCKAWAY BLVD, 11417,40.680428999588415,-73.8438529979573,ZCTA5 10004,140450.0
109,193,ATLANTIC AV STATION, 11207,40.675344666408044,-73.9030969995401,ZCTA5 10004,140450.0
110,458,EUCLID AV STATION, 11208,40.67537699823937,-73.87210600099675,ZCTA5 10004,140450.0
111,224,ALABAMA AV, 11207,40.676998000003756,-73.89852600159652,ZCTA5 10004,140450.0
112,191,GRANT AVENUE SUBWAY STATION, 11208,40.67704400054478,-73.86504999877702,ZCTA5 10004,140450.0
113,119,7 AVENUE, 11217,40.677102179832936,-73.97285279191024,ZCTA5 10004,140450.0
114,35,UNION ST, 11215,40.67731566735096,-73.98310999909674,ZCTA5 10004,140450.0
115,11,VAN SICLEN AV, 11207,40.67802821447783,-73.89165772702445,ZCTA5 10004,140450.0
117,116,ROCKAWAY AV, 11233,40.67833999988351,-73.91194599726617,ZCTA5 10004,140450.0
118,282,BROADWAY JUNCTION, 11207,40.67845624842869,-73.90311757920685,ZCTA5 10004,140450.0
119,37,RALPH AV, 11233,40.678822000873375,-73.92078599933306,ZCTA5 10004,140450.0
120,297,UTICA AV, 11233,40.67936399950546,-73.93072899914026,ZCTA5 10004,140450.0
149,366,HOYT - SCHERMERHORN, 11201,40.68840847580642,-73.98503624034139,ZCTA5 10004,140450.0
122,464,80 ST, 11417,40.67937100115432,-73.85899200206335,ZCTA5 10004,140450.0
123,214,CLEVELAND ST, 11208,40.67977799896117,-73.8851940021643,ZCTA5 10004,140450.0
124,459,88 ST-BOYD AV STATION, 11417,40.67984300135503,-73.85147000026086,ZCTA5 10004,140450.0
125,7,KINGSTON-THROOP AVS STATION, 11213,40.67991899941601,-73.94085899871263,ZCTA5 10004,140450.0
126,393,CARROLL ST STATION, 11231,40.68027335170176,-73.9949469799884,ZCTA5 10004,140450.0
148,127,NEVINS STREET STATION, 11217,40.68831058019022,-73.98040679874579,ZCTA5 10004,140450.0
157,228,75 ST-ELDERTS LANE STATION, 11421,40.691290001246735,-73.86728799944963,ZCTA5 10004,140450.0
150,73,WILSON AVENUE STATION, 11207,40.68886654246024,-73.90395860491864,ZCTA5 10004,140450.0
172,301,CENTRAL AVE, 11221,40.697873000118314,-73.92724299902838,ZCTA5 10004,140450.0
174,452,YORK STREET SUBWAY STATION, 11201,40.69933699977884,-73.99053100065457,ZCTA5 10004,140450.0
175,232,MYRTLE-WYCKOFF AVENUES SUBWAY STATION, 11237,40.69945400090837,-73.91217899939602,ZCTA5 10004,140450.0
176,211,MYRTLE-WYCKOFF AVENUES SUBWAY STATION, 11237,40.699471062427136,-73.91097571826471,ZCTA5 10004,140450.0
177,451,YORK STREET SUBWAY STATION, 11201,40.69974266769157,-73.98688499993673,ZCTA5 10004,140450.0
178,363,MYRTLE - WILLOUGHBY AVS, 11206,40.70037666622154,-73.9502340010257,ZCTA5 10004,140450.0
179,64,SUTPHIN BLVD-ARCHER AV-JFK STATION, 11435,40.700382424235,-73.80800471963833,ZCTA5 10004,140450.0
180,371,FLUSHING AV, 11206,40.70040440298112,-73.94137734838365,ZCTA5 10004,140450.0
181,209,121 STREET, 11418,40.70048199851532,-73.82834900017954,ZCTA5 10004,140450.0
182,417,SOUTH FERRY STA, 10004,40.701730507574474,-74.01316895919258,ZCTA5 10004,140450.0
183,246,JAMAICA CENTER - PARSONS/ARCHER, 11432,40.70206737621188,-73.80109632298924,ZCTA5 10004,140450.0
184,62,JAMAICA - VAN WYCK SUBWAY STATION, 11418,40.70289855287314,-73.81701287135405,ZCTA5 10004,140450.0
185,233,SENECA AV, 11385,40.70291899894902,-73.90758199885424,ZCTA5 10004,140450.0
186,420,WHITEHALL ST, 10004,40.703142373599135,-74.0130072374272,ZCTA5 10004,140450.0
187,234,DEKALB AV, 11237,40.703692999616436,-73.91823200219724,ZCTA5 10004,140450.0
188,75,LORIMER ST, 11206,40.703844000042096,-73.94735499884204,ZCTA5 10004,140450.0
189,448,FOREST AV, 11385,40.704412000878136,-73.90307500005954,ZCTA5 10004,140450.0
190,418,BOWLING GREEN, 10004,40.704913999280755,-74.01400799803432,ZCTA5 10004,140450.0
173,302,KNICKERBOCKER AV / MYRTLE AV, 11237,40.698660001238046,-73.91972000188625,ZCTA5 10004,140450.0
171,445,CLARK STREET SUBWAY STATION, 11201,40.697465999964685,-73.99308599821961,ZCTA5 10004,140450.0
151,69,CLASSON AV, 11238,40.68888900026455,-73.95999000137213,ZCTA5 10004,140450.0
170,372,MYRTLE AV STATION, 11206,40.6971950005145,-73.93562300129959,ZCTA5 10004,140450.0
152,300,GATES AVENUE STATION, 11221,40.689583999013905,-73.92215600150752,ZCTA5 10004,140450.0
153,227,CYPRESS HILLS, 11208,40.689616000838754,-73.87332199882995,ZCTA5 10004,140450.0
154,105,BEDFORD-NOSTRAND AVS STATION, 11205,40.68962700158444,-73.95352200064022,ZCTA5 10004,140450.0
155,404,HOYT ST, 11201,40.69054418535472,-73.98506379575646,ZCTA5 10004,140450.0
156,14,DEKALB AV SUBWAY STA, 11217,40.69064811996979,-73.98177094440949,ZCTA5 10004,140450.0
158,376,JAY ST - METROTECH, 11201,40.69225539645323,-73.98605667854612,ZCTA5 10004,140450.0
159,122,BOROUGH HALL, 11201,40.69240399999104,-73.99015100090539,ZCTA5 10004,140450.0
160,206,85 STREET - FOREST PARKWAY STATION, 11421,40.69242699966103,-73.86008700006875,ZCTA5 10004,140450.0
107,81,PARK PL, 11238,40.674771666852635,-73.95762400074635,ZCTA5 10004,140450.0
162,299,KOSCIUSZKO STREET STATION, 11221,40.69317200129203,-73.92850899927411,ZCTA5 10004,140450.0
163,405,BOROUGH HALL, 11201,40.69321899961109,-73.98999799960687,ZCTA5 10004,140450.0
164,207,WOODHAVEN BLVD, 11421,40.69370399880105,-73.85205199740794,ZCTA5 10004,140450.0
165,377,COURT STREET STATION, 11201,40.694196480777,-73.99181830901125,ZCTA5 10004,140450.0
166,362,MYRTLE - WILLOUGHBY AVS, 11206,40.694618999037644,-73.94906699890156,ZCTA5 10004,140450.0
167,13,104 STREET STATION, 11418,40.695165998233726,-73.84443500029684,ZCTA5 10004,140450.0
168,210,HALSEY ST STATION, 11237,40.695518001148784,-73.90393400118631,ZCTA5 10004,140450.0
169,208,111 STREET STATION, 11418,40.697114810696476,-73.83679338454697,ZCTA5 10004,140450.0
161,367,JAY ST - METROTECH STATION, 11201,40.6924706368471,-73.98721815267317,ZCTA5 10004,140450.0
116,385,ATLANTIC AV STATION, 11207,40.67833366608023,-73.90531600055341,ZCTA5 10004,140450.0
106,384,LIBERTY AVENUE STATION, 11207,40.67454199987086,-73.89654800103929,ZCTA5 10004,140450.0
80,60,PROSPECT PARK SUBWAY STATION, 11226,40.66163345510179,-73.96203130426609,ZCTA5 10004,140450.0
86,221,SUTTER AV - RUTLAND RD,"yn, NY",40.66476678877493,-73.92252118536001,ZCTA5 10004,140450.0
85,4,PENNSYLVANIA AV STATION, 11207,40.66471445143568,-73.89488591154061,ZCTA5 10004,140450.0
84,215,LIVONIA AV, 11212,40.66405727094644,-73.90056237226057,ZCTA5 10004,140450.0
83,216,JUNIUS ST, 11212,40.66358900181724,-73.90244864183562,ZCTA5 10004,140450.0
82,133,STERLING ST, 11225,40.6627729934283,-73.95072891124937,ZCTA5 10004,140450.0
81,217,ROCKAWAY AVE, 11224,40.66261748815223,-73.90895833584449,ZCTA5 10004,140450.0
79,220,SARATOGA AV, 11212,40.6615297898075,-73.91633025007947,ZCTA5 10004,140450.0
88,45,VAN SICLEN AV, 11207,40.66551796305964,-73.88940491730106,ZCTA5 10004,140450.0
78,241,HOWARD BEACH - JFK SUBWAY STATION, 11414,40.6604760000496,-73.83030100071032,ZCTA5 10004,140450.0
77,392,25 ST, 11232,40.66039666692321,-73.99809099974297,ZCTA5 10004,140450.0
76,106,15 ST - PROSPECT PARK STATION, 11215,40.66003568810021,-73.97973580592874,ZCTA5 10004,140450.0
75,222,NEW LOTS AV, 11212,40.658914773685275,-73.89927796057142,ZCTA5 10004,140450.0
74,44,WINTHROP ST, 11225,40.65665931376077,-73.95007934590994,ZCTA5 10004,140450.0
105,225,SHEPHERD AVENUE STATION, 11208,40.6741300014559,-73.88074999747269,ZCTA5 10004,140450.0
87,380,PROSPECT AV STATION, 11215,40.66541366712979,-73.99287200067424,ZCTA5 10004,140450.0
108,114,GRAND ARMY PLAZA STATION, 11238,40.675294695103204,-73.97095633192279,ZCTA5 10004,140450.0
89,107,7 AVENUE STATION, 11215,40.66624469001985,-73.98025117900944,ZCTA5 10004,140450.0
97,373,4 AV - 9 ST STATION, 11215,40.67027166728493,-73.98977899938897,ZCTA5 10004,140450.0
90,212,NEW LOTS AVENUE STATION, 11207,40.6663149325969,-73.8841107080033,ZCTA5 10004,140450.0
103,213,VAN SICLEN AV STATION, 11207,40.67270999906104,-73.89035800024709,ZCTA5 10004,140450.0
102,123,AQUEDUCT RACETRACK, 11417,40.67209699917285,-73.83591899965162,ZCTA5 10004,140450.0
101,128,EASTERN PARKWAY BROOKLYN MUSEUM STATION, 11238,40.67203223545925,-73.96422203748425,ZCTA5 10004,140450.0
99,41,BOTANIC GARDEN, 11225,40.67076515344894,-73.9580997367769,ZCTA5 10004,140450.0
98,280,BOTANIC GARDEN, 11225,40.670342666584396,-73.95924499945694,ZCTA5 10004,140450.0
100,381,9 STREET STATION, 11215,40.670846666842756,-73.98830199974512,ZCTA5 10004,140450.0
96,444,NOSTRAND AVENUE STATION, 11225,40.66993815093054,-73.95042624895791,ZCTA5 10004,140450.0
95,135,KINGSTON AV, 11213,40.66948144864978,-73.94215978392963,ZCTA5 10004,140450.0
94,72,SUTTER AVENUE STATION, 11207,40.66914500061397,-73.9019160004208,ZCTA5 10004,140450.0
93,134,UTICA AVENUE SUBWAY STATION, 11213,40.66897831107809,-73.93293256081851,ZCTA5 10004,140450.0
92,242,AQUEDUCT NORTH CONDUIT AV., 11417,40.668234001699815,-73.83405799948724,ZCTA5 10004,140450.0
91,454,PRESIDENT STREET STATION, 11225,40.66788360353681,-73.95058920022207,ZCTA5 10004,140450.0
104,374,SMITH-9TH STREET, 11231,40.67364106090412,-73.99589172790935,ZCTA5 10004,140450.0
322,236,46 STREET STATION, 11103,40.756316952608096,-73.91352174995538,ZCTA5 10022,133208.0
324,298,STEINWAY STREET STATION, 11103,40.756987359125745,-73.9205264716827,ZCTA5 10022,133208.0
325,84,51 ST STATION, 10022,40.75710699989315,-73.97192000069981,ZCTA5 10022,133208.0
327,142,LEXINGTON AV-53 ST, 10022,40.75746830782865,-73.96907237490205,ZCTA5 10022,133208.0
332,141,5 AVE - 53 ST, 10022,40.760086832313256,-73.97524850527341,ZCTA5 10022,133208.0
342,355,5 AVENUE STATION, 10022,40.764810999755284,-73.97334700047045,ZCTA5 10022,133208.0
323,77,36TH AVENUE, 11106,40.7564420005104,-73.929861999118,ZCTA5 10022,133208.0
350,33,77 ST, 10075,40.77362000074615,-73.95987399886046,ZCTA5 10075,129594.0
260,194,CHRISTOPHER ST STATION, 10014,40.73342200104225,-74.00290599855234,ZCTA5 10014,127973.0
268,442,14 ST, 10014,40.73977666638199,-74.00257800104762,ZCTA5 10014,127973.0
249,66,67 AVENUE STATION, 11375,40.726505475813006,-73.85286048434907,ZCTA5 10014,127973.0
270,443,14 ST, 10014,40.740893000193296,-74.00168999937027,ZCTA5 10014,127973.0
250,96,HOUSTON STREET STATION, 10014,40.72825100073021,-74.00536700180581,ZCTA5 10014,127973.0
259,231,WOODHAVEN BLVD, 11373,40.73309737380972,-73.86943208612348,ZCTA5 10014,127973.0
361,85,86 STREET STATION, 10024,40.78864400073892,-73.97621799859327,ZCTA5 10024,126107.0
360,164,86 STREET STATION, 10024,40.785823046785566,-73.96882849429672,ZCTA5 10024,126107.0
357,192,79 STREET STATION, 10024,40.78393399959032,-73.97991700056134,ZCTA5 10024,126107.0
356,162,81 STREET-MUSEUM OF NATURAL HISTORY STATION, 10024,40.78134608418206,-73.97209794937208,ZCTA5 10024,126107.0
341,350,LEXINGTON AV-63 STREET SUBWAY STATION, 10065,40.76461809442373,-73.96608964413245,ZCTA5 10065,124322.0
336,48,59 ST-LEXINGTON AV STATION, 10065,40.76252600030458,-73.96796700047321,ZCTA5 10065,124322.0
337,356,59 ST-LEXINGTON AV STATION, 10065,40.762708855394564,-73.96737501711436,ZCTA5 10065,124322.0
340,354,57 STREET SUBWAY STATION, 10106,40.764565525018284,-73.98072973372129,ZCTA5 10065,124322.0
352,55,72 STREET STATION, 10023,40.77551939729258,-73.976336575218,ZCTA5 10023,123951.0
354,161,72 STREET / BROADWAY, 10023,40.77845300068614,-73.98197000159583,ZCTA5 10023,123951.0
345,93,59 ST - COLUMBUS CIRCLE, 10023,40.76824700063689,-73.98192900232715,ZCTA5 10023,123951.0
346,352,59 ST - COLUMBUS CIRCLE, 10023,40.768249531776064,-73.98164872301399,ZCTA5 10023,123951.0
348,250,ASTORIA BLVD STATION, 11102,40.770036999490856,-73.91809500109238,ZCTA5 10023,123951.0
349,87,66 ST - LINCOLN CENTER SUBWAY STATION, 10023,40.77344000052039,-73.98220899995783,ZCTA5 10023,123951.0
351,251,DITMARS BLVD STATION, 11105,40.775035666523664,-73.91203400010309,ZCTA5 10023,123951.0
344,101,68 STREET STATION, 10021,40.76814100049679,-73.96387000158042,ZCTA5 10021,123842.0
347,470,72 STREET SUBWAY STATION, 10021,40.76880251014895,-73.95836178682245,ZCTA5 10021,123842.0
343,303,30 AVENUE STATION, 11102,40.76677866673298,-73.9214790001739,ZCTA5 10021,123842.0
276,364,23 STREET STATION, 10011,40.74295431782601,-73.99276500471389,ZCTA5 10011,123208.0
275,100,VERNON BLVD - JACKSON AV, 11101,40.742625999697495,-73.95358099875249,ZCTA5 10011,123208.0
280,95,23 STREET STATION, 10011,40.744080999897506,-73.99565700164871,ZCTA5 10011,123208.0
264,67,GRAND AV-NEWTOWN STATION, 11373,40.73681341819713,-73.8772208566918,ZCTA5 10011,123208.0
265,441,14 STREET STATION, 10011,40.73774146981052,-73.99775078874782,ZCTA5 10011,123208.0
266,438,14 STREET STATION, 10011,40.737825999728116,-74.00020100063496,ZCTA5 10011,123208.0
267,440,14 STREET STATION, 10011,40.73822799969515,-73.99620899921354,ZCTA5 10011,123208.0
271,202,18 STREET STATION, 10011,40.741039999802105,-73.99787100060406,ZCTA5 10011,123208.0
273,94,HUNTERS POINT AV, 11101,40.742215999863156,-73.9489160009391,ZCTA5 10011,123208.0
274,36,ELMHURST AV, 11373,40.74237007972169,-73.88203474658641,ZCTA5 10011,123208.0
278,238,46 ST-BLISS ST STATION, 11104,40.74313200060382,-73.91843500103974,ZCTA5 10011,123208.0
279,293,40 ST - LOWERY ST STATION, 11104,40.74378100149132,-73.9240159984882,ZCTA5 10011,123208.0
286,435,23 STREET STATION, 10011,40.74590599939995,-73.99804100117201,ZCTA5 10011,123208.0
285,53,61 ST-WOODSIDE, 11377,40.745630001138395,-73.90298400173006,ZCTA5 10011,123208.0
355,450,86 ST LEXINGTON AV, 10028,40.77949199820952,-73.95558899985132,ZCTA5 10028,119203.0
353,471,86 STREET SUBWAY STATION, 10028,40.77786104333163,-73.95177090964917,ZCTA5 10028,119203.0
308,9,36 STREET STATION, 11101,40.75196004401078,-73.92901818461539,ZCTA5 10017,118469.0
307,30,GRAND CENTRAL-42 STREET STATION, 10017,40.75180742981634,-73.9767132992584,ZCTA5 10017,118469.0
311,80,GRAND CENTRAL-42 STREET STATION, 10017,40.75276866674217,-73.97918899989101,ZCTA5 10017,118469.0
306,189,111 ST, 11368,40.75172999941711,-73.85533399834884,ZCTA5 10017,118469.0
309,436,34 ST - PENN STATION, 10123,40.75228700077589,-73.99339099970578,ZCTA5 10017,118469.0
310,154,39 AVENUE STATION, 11101,40.75276306140845,-73.932851376796,ZCTA5 10017,118469.0
302,188,103 ST-CORONA PLAZA STATION, 11368,40.74986500055555,-73.86269999830412,ZCTA5 10017,118469.0
303,357,34 STREET - PENN STATION, 10120,40.75037300003949,-73.99105699913983,ZCTA5 10017,118469.0
304,102,QUEENSBORO PLAZA, 11101,40.7506356510148,-73.9401635351909,ZCTA5 10017,118469.0
305,203,GRAND CENTRAL-42 STREET STATION, 10017,40.751431000286864,-73.97604100111508,ZCTA5 10017,118469.0
272,379,23 STREET STATION, 10010,40.74130266729,-73.98934400102907,ZCTA5 10010,115084.0
269,91,23 STREET STATION, 10010,40.73986400047461,-73.98659900207888,ZCTA5 10010,115084.0
358,472,96 ST & 2 AVENUE, 10128,40.784236650177654,-73.9470660219183,ZCTA5 10128,111937.0
277,199,28 STREET SUBWAY STATION, 10016,40.743069999259035,-73.98426400110407,ZCTA5 10016,109250.0
287,31,33 STREET STATION, 10016,40.746080999091454,-73.98207600148947,ZCTA5 10016,109250.0
314,465,5 AVENUE-BRYANT PARK STATION, 10018,40.753821000648244,-73.98196299856707,ZCTA5 10018,107861.0
313,345,21 ST - QUEENSBRIDGE, 11101,40.75373927087553,-73.94193761457447,ZCTA5 10018,107861.0
312,237,NORTHERN BLVD STATION, 11377,40.752824829236076,-73.90606508052358,ZCTA5 10018,107861.0
315,59,42 ST-BRYANT PARK SUBWAY STATION, 10018,40.754184001312545,-73.98459099904711,ZCTA5 10018,107861.0
220,413,CHAMBERS ST, 10013,40.71323378962671,-74.00340673031336,ZCTA5 10013,106056.0
219,28,CHAMBERS ST, 10013,40.71306499943313,-74.0041310005885,ZCTA5 10013,106056.0
230,414,CANAL ST, 10013,40.71817387697391,-73.99982638545937,ZCTA5 10013,106056.0
229,163,75 AV, 11375,40.71804465348743,-73.83692369387157,ZCTA5 10013,106056.0
228,150,BEDFORD AV STATION, 11211,40.71717399858899,-73.95666499806525,ZCTA5 10013,106056.0
227,403,CHAMBERS STREET STATION, 10013,40.71547800011327,-74.00926600170112,ZCTA5 10013,106056.0
226,149,GRAHAM AV, 11211,40.71457599836364,-73.94394399869037,ZCTA5 10013,106056.0
236,463,FRANKLIN ST, 10013,40.719318001302135,-74.00688600277107,ZCTA5 10013,106056.0
239,409,CANAL STREET STATION, 10013,40.72082400007119,-74.0052290023424,ZCTA5 10013,106056.0
242,89,CANAL ST STATION, 10013,40.72285399778783,-74.0062770001748,ZCTA5 10013,106056.0
234,1,CANAL ST, 10013,40.71880300107709,-74.00019299927328,ZCTA5 10013,106056.0
248,394,SPRING STREET SUBWAY STATION, 10013,40.72622700129312,-74.00373899843763,ZCTA5 10013,106056.0
235,434,CANAL ST, 10013,40.718814263587134,-74.00105471306033,ZCTA5 10013,106056.0
240,244,FOREST HILLS - 71 AV, 11375,40.72159430953587,-73.84451672012669,ZCTA5 10012,104561.0
241,466,SPRING ST SUBWAY STATION, 10012,40.72230099999366,-73.99714100006673,ZCTA5 10012,104561.0
244,399,PRINCE ST STATION, 10012,40.72432866597571,-73.99770200045987,ZCTA5 10012,104561.0
1,99,OCEAN PKWY, 11235,40.57631166708091,-73.96850099975177,ZCTA5 10012,104561.0
245,136,NASSAU AV, 11222,40.724479997808274,-73.95118300016523,ZCTA5 10012,104561.0
246,432,BROADWAY-LAFAYETTE ST STATION, 10012,40.725296998738045,-73.99620399876055,ZCTA5 10012,104561.0
247,456,BROADWAY-LAFAYETTE ST STATION, 10012,40.72591466682659,-73.99465900006331,ZCTA5 10012,104561.0
255,137,GREENPOINT AV, 11222,40.73126699971465,-73.95442500146234,ZCTA5 10012,104561.0
256,83,WEST 4 ST-WASHINGTON SQ STA, 10012,40.73225449336788,-74.00030814755975,ZCTA5 10012,104561.0
257,205,WEST 4 ST-WASHINGTON SQ STA, 10012,40.73233799774325,-74.00049500225434,ZCTA5 10012,104561.0
0,197,WEST 8 STREET-NEW YORK AQUARIUM, 11224,40.576033818103646,-73.97595787413822,ZCTA5 10012,104561.0
9,16,BEACH 90 STREET HOLLAND, 11693,40.58809156457325,-73.8136514041963,ZCTA5 10012,104561.0
19,330,AVENUE U, 11223,40.59723599992044,-73.97908400099428,ZCTA5 10012,104561.0
23,313,BAY PARKWAY STATION, 11214,40.601950461572315,-73.9936762000529,ZCTA5 10012,104561.0
22,185,BEACH 25 STREET WAVECREST STATION, 11691,40.60006600105881,-73.76135299762073,ZCTA5 10012,104561.0
21,328,AVENUE U STATION, 11229,40.59930895095475,-73.95581122316301,ZCTA5 10012,104561.0
20,312,25 AVENUE STATION, 11214,40.59770366695856,-73.98682900011477,ZCTA5 10012,104561.0
45,322,NEW UTRECHT AV, 11219,40.6262244629222,-73.99685724994862,ZCTA5 10012,104561.0
46,343,AVENUE H, 11230,40.62920837758969,-73.96151793942495,ZCTA5 10012,104561.0
47,308,77 STREET STATION, 11209,40.62974166688692,-74.02550999962659,ZCTA5 10012,104561.0
18,324,AVENUE U, 11223,40.59592482551748,-73.97337641974885,ZCTA5 10012,104561.0
25,54,FAR ROCKAWAY MOTT AVENUE STATION, 11691,40.60399500168753,-73.75540499924732,ZCTA5 10012,104561.0
17,184,BEACH 36 STREET - EDGEMERE STATION, 11691,40.595398001668755,-73.76817499939688,ZCTA5 10012,104561.0
16,344,NECK ROAD STATION Q, 11229,40.59532169111695,-73.95507827493763,ZCTA5 10012,104561.0
48,307,18 AVENUE STATION, 11230,40.62975466638584,-73.97697099965795,ZCTA5 10012,104561.0
50,61,55 STREET STATION, 11219,40.631478760937455,-73.99534882595742,ZCTA5 10012,104561.0
51,132,FLATBUSH AVENUE STATION, 11210,40.63284240700742,-73.94754120734406,ZCTA5 10012,104561.0
52,309,BAY RIDGE AV STATION, 11220,40.63496666682377,-74.02337699950728,ZCTA5 10012,104561.0
53,76,8 AV, 11220,40.63497099964717,-74.01151599772157,ZCTA5 10012,104561.0
24,325,KINGS HWY, 11223,40.603258405128265,-73.97235530852441,ZCTA5 10012,104561.0
44,342,AVENUE J, 11230,40.62502281991517,-73.96069316246925,ZCTA5 10012,104561.0
55,68,DITMAS AV, 11218,40.63611866666291,-73.97817199965161,ZCTA5 10012,104561.0
34,337,AVENUE N, 11230,40.614356711908826,-73.97404850873144,ZCTA5 10012,104561.0
28,321,18 AVENUE STATION, 11214,40.607735731717405,-74.00159259239406,ZCTA5 10012,104561.0
29,98,BROAD CHANNEL STATION, 11693,40.60840218069683,-73.81583268782963,ZCTA5 10012,104561.0
30,329,KINGS HIGHWAY STATION, 11229,40.608638645396006,-73.95760873538083,ZCTA5 10012,104561.0
26,331,KINGS HIGHWAY STATION, 11223,40.604058999804934,-73.98037300229343,ZCTA5 10012,104561.0
31,336,AVENUE P, 11223,40.60884280894992,-73.97300281528751,ZCTA5 10012,104561.0
32,340,BAY PKWY, 11204,40.611455789890044,-73.98178001069294,ZCTA5 10012,104561.0
33,318,79 STREET STATION, 11220,40.61315892569516,-74.00058287431506,ZCTA5 10012,104561.0
35,316,BAY RIDGE - 95 ST, 11209,40.61662166725951,-74.03087600085766,ZCTA5 10012,104561.0
43,341,AVENUE I STATION, 11230,40.62501744019143,-73.97606933170925,ZCTA5 10012,104561.0
36,314,BAY PKWY, 11204,40.61710899986601,-73.98452199846112,ZCTA5 10012,104561.0
37,339,AVENUE M, 11230,40.617397744443736,-73.9592431052215,ZCTA5 10012,104561.0
38,319,71 ST, 11228,40.61925870977272,-73.99884094850684,ZCTA5 10012,104561.0
39,315,18 AVENUE STATION, 11204,40.620686997680025,-73.99045399865993,ZCTA5 10012,104561.0
40,338,BAY PKWY, 11230,40.620731623167885,-73.97525697822151,ZCTA5 10012,104561.0
41,317,86 STREET STATION, 11209,40.62268666715025,-74.02839799998641,ZCTA5 10012,104561.0
42,323,NEW UTRECHT AV, 11219,40.62484166725887,-73.99635300025969,ZCTA5 10012,104561.0
54,112,NEWKIRK PLAZA SUBWAY STATION, 11226,40.63514193733789,-73.96269486837261,ZCTA5 10012,104561.0
49,311,FORT HAMILTON PKWY, 11219,40.63138566722446,-74.00535100046275,ZCTA5 10012,104561.0
56,310,50 ST, 11219,40.6362608909614,-73.9946587805514,ZCTA5 10012,104561.0
69,111,CHURCH AV STATION, 11226,40.65049324646484,-73.96288246192114,ZCTA5 10012,104561.0
57,131,NEWKIRK AVENUE STATION, 11226,40.63999124275311,-73.94829990822406,ZCTA5 10012,104561.0
70,108,FORT HAMILTON PARKWAY STATION, 11218,40.650781668034185,-73.97577599917474,ZCTA5 10012,104561.0
71,130,CHURCH AV, 11226,40.65086068780221,-73.94945514035335,ZCTA5 10012,104561.0
72,113,PARKSIDE AV, 11226,40.65507304163716,-73.96145343987648,ZCTA5 10012,104561.0
73,388,36 STREET STATION, 10012,40.655143666338866,-74.00354899951809,ZCTA5 10012,104561.0
14,335,86 STREET SUBWAY STATION, 11223,40.592465000888595,-73.97818899936273,ZCTA5 10012,104561.0
13,181,BEACH 60 ST STATION - STRAITON AVENUE, 11692,40.592374001212356,-73.7885219980118,ZCTA5 10012,104561.0
12,204,BEACH 67 ST STATION ARVERNE BY THE SEA, 11692,40.59092700078133,-73.7969239998421,ZCTA5 10012,104561.0
11,333,AVENUE X STATION, 11223,40.58944966662529,-73.97426599968904,ZCTA5 10012,104561.0
10,334,BAY 50 ST STATION, 11214,40.588840666519324,-73.98376500045946,ZCTA5 10012,104561.0
8,327,SHEEPSHEAD BAY, 11235,40.586547547075355,-73.95405791257906,ZCTA5 10012,104561.0
7,182,BEACH 98 STREET - PLAYLAND, 11694,40.58538569133279,-73.82052058959523,ZCTA5 10012,104561.0
6,15,BEACH 105 STREET SEASIDE, 11694,40.58326843810286,-73.82758075034528,ZCTA5 10012,104561.0
5,183,ROCKAWAY PARK STATION - BEACH 116 STREET, 11694,40.58095586557353,-73.83559008701239,ZCTA5 10012,104561.0
4,332,NEPTUNE AV, 11224,40.58073875849146,-73.97459272818807,ZCTA5 10012,104561.0
3,326,BRIGHTON BEACH, 11235,40.577710196642435,-73.96135378598797,ZCTA5 10012,104561.0
2,468,CONEY ISLAND-STILLWELL AV STATION, 11224,40.57728100006751,-73.9812359981396,ZCTA5 10012,104561.0
15,180,BEACH 44 ST STATION / FRANK AVENUE, 11691,40.59294299908617,-73.77601299999506,ZCTA5 10012,104561.0
27,320,20 AVENUE STATION, 11214,40.604676998169325,-73.99817432157569,ZCTA5 10012,104561.0
66,218,CANARSIE-ROCKAWAY PKWY, 11236,40.646653667395285,-73.90185000017287,ZCTA5 10012,104561.0
58,391,FORT HAMILTON PARKWAY STATION, 11219,40.640912711444656,-73.9942022375285,ZCTA5 10012,104561.0
59,460,CORTELYOU RD, 11226,40.6409401651401,-73.96379005505494,ZCTA5 10012,104561.0
63,390,53 STREET STATION, 11220,40.645068667359816,-74.01403399986317,ZCTA5 10012,104561.0
60,386,59 STREET STATION, 11234,40.6413616662838,-74.01788099953987,ZCTA5 10012,104561.0
61,110,BEVERLEY RD, 11226,40.64390459860419,-73.96435779623125,ZCTA5 10012,104561.0
62,109,CHURCH AV, 11218,40.64427200012997,-73.97972116229084,ZCTA5 10012,104561.0
64,129,BEVERLY RD, 11226,40.64512351894373,-73.94884798381702,ZCTA5 10012,104561.0
68,219,E 105 ST, 11236,40.65046878544699,-73.89954769388723,ZCTA5 10012,104561.0
67,387,45 ST STATION, 11220,40.648938666612814,-74.01000600074939,ZCTA5 10012,104561.0
65,389,9 AVENUE, 11219,40.64648407726636,-73.99444874451204,ZCTA5 10012,104561.0
262,383,14 STREET - UNION SQ STATION, 10003,40.734763312179226,-73.99066976901818,ZCTA5 10003,104441.0
261,104,14 STREET - UNION SQ STATION, 10003,40.73467300099613,-73.98995099881881,ZCTA5 10003,104441.0
251,190,63 DRIVE-REGO PARK SUBWAY STATION, 11374,40.729763972422425,-73.86161820097203,ZCTA5 10003,104441.0
258,382,3 AVENUE STATION, 10003,40.73269099971662,-73.98575000112093,ZCTA5 10003,104441.0
252,0,ASTOR PL, 10003,40.73005400028978,-73.99106999861965,ZCTA5 10003,104441.0
253,400,8 STREET STATION, 10003,40.73046499853991,-73.99250799849149,ZCTA5 10003,104441.0
263,378,14 STREET - UNION SQ STATION, 10003,40.73587226699812,-73.99053886181646,ZCTA5 10003,104441.0
338,347,7 AVENUE STATION, 10019,40.76297015245628,-73.98169782344476,ZCTA5 10019,99063.0
335,346,50 STREET SUBWAY STATION, 10019,40.76245599925997,-73.98598400026407,ZCTA5 10019,99063.0
339,349,57 STREET STATION, 10019,40.76408500081713,-73.97736800085171,ZCTA5 10019,99063.0
333,78,STEINWAY STREET STATION, 11103,40.761431998800546,-73.92582299919907,ZCTA5 10019,99063.0
334,2,50 ST BROADWAY, 10019,40.76172799961419,-73.98384899986625,ZCTA5 10019,99063.0
326,361,42 ST - PORT AUTHORITY BUS TERMINAL, 10036,40.757307998551504,-73.98973500085859,ZCTA5 10036,93707.0
316,79,TIMES SQ-42 ST, 10036,40.75461199851542,-73.98676800153976,ZCTA5 10036,93707.0
317,22,METS - WILLETS POINT, 11368,40.75462199881262,-73.8456249984179,ZCTA5 10036,93707.0
318,358,TIMES SQ - 42 ST, 10036,40.755289999956815,-73.98749500051885,ZCTA5 10036,93707.0
330,24,MAIN ST STATION, 11354,40.75959999915012,-73.83003000262508,ZCTA5 10036,93707.0
320,196,TIMES SQ - 42 ST, 10036,40.755477001982506,-73.98769099825151,ZCTA5 10036,93707.0
321,146,TIMES SQ-42 ST SUBWAY STATION, 10036,40.755983000570076,-73.98622899953202,ZCTA5 10036,93707.0
331,353,49 STREET, 10036,40.75980197387069,-73.98420956591094,ZCTA5 10036,93707.0
329,351,ROOSEVELT ISLAND SUBWAY STATION, 10044,40.759171999671075,-73.95323499978866,ZCTA5 10044,92623.0
299,144,34 ST - HERALD SQ SUBWAY STATION, 10001,40.749644560094424,-73.98793683382641,ZCTA5 10001,85221.0
319,469,34TH STREET-HUDSON YARDS SUBWAY STATION, 10001,40.75544635961596,-74.00219709442206,ZCTA5 10001,85221.0
292,92,COURT SQUARE STATION, 11101,40.74702299889643,-73.94526400039679,ZCTA5 10001,85221.0
301,365,34 ST - HERALD SQ SUBWAY STATION, 10001,40.74978939990011,-73.98777189072919,ZCTA5 10001,85221.0
281,153,21 STREET-VAN ALST STATION, 11101,40.7441286664954,-73.94959999975521,ZCTA5 10001,85221.0
282,235,52 STREET - LINCOLN AV STATION, 11377,40.744149001021576,-73.91254899891254,ZCTA5 10001,85221.0
283,292,33 ST- RAWSON ST, 11101,40.74458699983993,-73.93099699953838,ZCTA5 10001,85221.0
284,143,28 ST BROADWAY, 10001,40.74545399979951,-73.98869800128737,ZCTA5 10001,85221.0
289,229,69 ST-FISK AV STATION, 11377,40.74632499941029,-73.89640299931851,ZCTA5 10001,85221.0
290,437,ROOSEVELT AV - JACKSON HEIGHTS SUBWAY STATION, 11372,40.746539691158894,-73.89129866519697,ZCTA5 10001,85221.0
291,230,ROOSEVELT AV - JACKSON HEIGHTS SUBWAY STATION, 11372,40.746867573829114,-73.8912051289911,ZCTA5 10001,85221.0
288,152,COURT SQUARE, 11101,40.74630503357145,-73.94381559597835,ZCTA5 10001,85221.0
293,198,28 STREET STATION, 10001,40.747214999182184,-73.99336500134324,ZCTA5 10001,85221.0
297,306,QUEENS PLAZA SUBWAY STATION, 11101,40.74891771986323,-73.93713823965696,ZCTA5 10001,85221.0
294,239,82 STREET STATION, 11372,40.74765899955913,-73.88369700071884,ZCTA5 10001,85221.0
298,23,JUNCTION BLVD, 11368,40.74914499948836,-73.86952700103515,ZCTA5 10001,85221.0
300,8,65 STREET STATION, 11377,40.74971952935675,-73.8987883783301,ZCTA5 10001,85221.0
296,240,90 ST - ELMHURST AV, 11372,40.74840800060913,-73.87661299986985,ZCTA5 10001,85221.0
295,65,COURT SQUARE-23 ST STATION, 11101,40.747768121414325,-73.9460547026633,ZCTA5 10001,85221.0
208,359,FULTON STREET SUBWAY STATION, 10038,40.71016216530185,-74.00762309323994,ZCTA5 10038,85032.0
196,304,JEFFERSON ST, 11237,40.706606665988716,-73.9229130000312,ZCTA5 10038,85032.0
197,429,WALL STREET STATION, 10038,40.706820999753376,-74.00909999844257,ZCTA5 10038,85032.0
204,138,MARCY AV, 11211,40.70838300001793,-73.95783200075729,ZCTA5 10038,85032.0
205,243,BRIARWOOD SUBWAY STATION, 11435,40.70916181536946,-73.82069263637443,ZCTA5 10038,85032.0
206,401,FULTON STREET STATION, 10038,40.709415999258646,-74.00657099970202,ZCTA5 10038,85032.0
207,412,FULTON STREET SUBWAY STATION, 10038,40.710022666584244,-74.00793800110388,ZCTA5 10038,85032.0
364,157,96 ST, 10025,40.79391900121471,-73.97232299915696,ZCTA5 10025,82352.0
363,56,96 ST, 10025,40.79161879767014,-73.96460245687165,ZCTA5 10025,82352.0
372,165,CATHEDRAL PARKWAY 110 STREET STATION, 10025,40.80396699961484,-73.9668470005456,ZCTA5 10025,82352.0
369,158,103 ST, 10025,40.79944600033483,-73.96837899960818,ZCTA5 10025,82352.0
366,160,103 ST STATION, 10025,40.79606073990453,-73.96137008267617,ZCTA5 10025,82352.0
469,270,VAN CORTLANDT PARK - 242 ST, 10471,40.889248000114755,-73.89858300049647,ZCTA5 10471,80932.0
442,125,PELHAM PKWY, 10469,40.858984999820116,-73.85535900043564,ZCTA5 10469,61090.0
454,283,GUN HILL ROAD STATION, 10469,40.86952599962675,-73.84638400151766,ZCTA5 10469,61090.0
461,276,BAYCHESTER AV, 10469,40.87866300037311,-73.83859099802153,ZCTA5 10469,61090.0
254,145,1 AVENUE STATION, 10009,40.730974975800656,-73.98168087489128,ZCTA5 10009,60521.0
462,266,231 ST, 10463,40.87885599817935,-73.90483400107873,ZCTA5 10463,58881.0
465,5,238 ST, 10463,40.88466700064975,-73.90087000018522,ZCTA5 10463,58881.0
471,40,NEREID AV, 10470,40.89828651557529,-73.8543153107622,ZCTA5 10470,56658.0
472,279,241 STREET STATION, 10470,40.90312500054125,-73.85061999879541,ZCTA5 10470,56658.0
428,25,BUHRE AV, 10461,40.846809998885504,-73.83256900003744,ZCTA5 10461,55847.0
435,200,PELHAM BAY PARK, 10461,40.85246199951661,-73.82812100059289,ZCTA5 10461,55847.0
416,29,ZEREGA AV, 10461,40.836488000608156,-73.84703599875441,ZCTA5 10461,55847.0
419,201,WESTCHESTER SQ - E TREMONT AV, 10461,40.83989200101392,-73.84295199925013,ZCTA5 10461,55847.0
425,90,MIDDLETOWN RD STATION, 10461,40.843863001283815,-73.83632199755944,ZCTA5 10461,55847.0
370,6,110 ST-CATHEDRAL PKWY STATION, 10026,40.80058155811496,-73.95806670661364,ZCTA5 10026,54349.0
371,169,116TH STREET STATION, 10026,40.80209799913301,-73.94962500096905,ZCTA5 10026,54349.0
374,397,116 ST, 10026,40.80505813344211,-73.95479778057313,ZCTA5 10026,54349.0
368,159,110 STREET STATION - CENTRAL PARK NORTH, 10026,40.79907499977324,-73.95182200176912,ZCTA5 10026,54349.0
429,179,175 STREET STATION, 10033,40.84739100072403,-73.93970399761595,ZCTA5 10033,53044.0
434,395,181 ST, 10033,40.851694999744616,-73.93796900205011,ZCTA5 10033,53044.0
432,177,181 STREET STATION, 10033,40.849504999740645,-73.9335959996056,ZCTA5 10033,53044.0
453,267,215 STREET STATION, 10034,40.86944399946045,-73.91527899954356,ZCTA5 10034,50909.0
458,265,MARBLE HILL - 225 ST, 10034,40.874560999417895,-73.90983099923551,ZCTA5 10034,50909.0
447,268,207 ST STATION, 10034,40.864614000525854,-73.91881900132313,ZCTA5 10034,50909.0
413,27,CASTLE HILL AVENUE STATION, 10462,40.83425499825462,-73.85122199961472,ZCTA5 10462,49962.0
437,124,MORRIS PARK STATION, 10462,40.85436399966426,-73.86049500117254,ZCTA5 10462,49962.0
440,38,PELHAM PKWY, 10462,40.8571924091606,-73.8674806785004,ZCTA5 10462,49962.0
431,43,BRONX PARK EAST STATION, 10462,40.84876866633893,-73.86835609178098,ZCTA5 10462,49962.0
468,277,EASTCHESTER - DYRE AV, 10466,40.88829999901007,-73.8308340021742,ZCTA5 10466,49906.0
470,86,233 STREET STATION, 10466,40.89314324138378,-73.85736239521543,ZCTA5 10466,49906.0
467,247,225 STREET STATION, 10466,40.88802825863786,-73.86021461772738,ZCTA5 10466,49906.0
443,396,190 STREET SUBWAY STATION, 10040,40.85902199892482,-73.93417999964332,ZCTA5 10040,47189.0
452,269,DYCKMAN STREET SUBWAY STATION, 10040,40.86807199999737,-73.91989900100465,ZCTA5 10040,47189.0
444,285,DYCKMAN STREET SUBWAY STATION, 10040,40.86053100138796,-73.92553600006474,ZCTA5 10040,47189.0
438,178,191 STREET SUBWAY STATION, 10040,40.85522500175836,-73.92941199742039,ZCTA5 10040,47189.0
449,430,DYCKMAN STREET SUBWAY STATION, 10040,40.86549099896892,-73.92727099960727,ZCTA5 10040,47189.0
378,167,125 STREET STATION, 10027,40.80775399918281,-73.94549500011411,ZCTA5 10027,45536.0
377,166,116 STREET STATION - COLUMBIA UNIVERSITY, 10027,40.80772200123087,-73.96410999757751,ZCTA5 10027,45536.0
381,398,125 STREET STATION, 10027,40.81107167299457,-73.95224799734774,ZCTA5 10027,45536.0
385,286,125 ST, 10027,40.81558099997893,-73.95837200097044,ZCTA5 10027,45536.0
395,171,137 ST - CITY COLLEGE, 10031,40.82200799968475,-73.95367600087873,ZCTA5 10031,44040.0
399,294,145 STREET STATION, 10031,40.824766360871905,-73.94408792823116,ZCTA5 10031,44040.0
401,155,145 ST, 10031,40.82655099962194,-73.95035999879713,ZCTA5 10031,44040.0
415,411,163 STREET SUBWAY STATION, 10032,40.83601299923096,-73.93989200188344,ZCTA5 10032,41890.0
412,156,157 STREET STATION, 10032,40.8340410001399,-73.94488999901047,ZCTA5 10032,41890.0
422,176,168 STREET STATION, 10032,40.84055599914853,-73.94013299907256,ZCTA5 10032,41890.0
423,57,168 STREET STATION, 10032,40.84071899990795,-73.93956099985425,ZCTA5 10032,41890.0
408,410,155 ST, 10032,40.83051799929251,-73.94151400082208,ZCTA5 10032,41890.0
389,439,135 STREET STATION, 10030,40.81790555921268,-73.94753480879213,ZCTA5 10030,36118.0
384,168,135 ST, 10030,40.814229000339104,-73.94077000106708,ZCTA5 10030,36118.0
233,369,DELANCEY ST, 10002,40.718680742194536,-73.98807806807719,ZCTA5 10002,35449.0
232,10,DELANCEY ST, 10002,40.71830605618619,-73.98740940202974,ZCTA5 10002,35449.0
231,431,BOWERY STATION, 10002,40.718266999549925,-73.99375299913589,ZCTA5 10002,35449.0
222,368,EAST BROADWAY, 10002,40.713855001020406,-73.99017700122197,ZCTA5 10002,35449.0
237,416,CANAL STREET SUBWAY STATION, 27616,40.71946500105897,-74.0018260000577,ZCTA5 10002,35449.0
238,433,BOWERY STATION, 10002,40.72024688314725,-73.99380690654237,ZCTA5 10002,35449.0
243,370,2 AVENUE STATION, 10002,40.72340166574911,-73.98993800003434,ZCTA5 10002,35449.0
446,407,FORDHAM ROAD STATION, 10468,40.86280299988937,-73.90103399921699,ZCTA5 10468,35398.0
451,258,KINGSBRIDGE RD STATION, 10468,40.867760000885795,-73.89717400101743,ZCTA5 10468,35398.0
456,264,BEDFORD PARK BLVD STATION, 10468,40.87324399861646,-73.88713799889572,ZCTA5 10468,35398.0
457,259,BEDFORD PARK BLVD STATION, 10468,40.87341199980121,-73.89006400069478,ZCTA5 10468,35398.0
466,455,MOSHOLU PKWY, 10467,40.88603700025333,-73.87875099990931,ZCTA5 10467,35381.0
464,272,219 STREET STATION, 10467,40.88388797462528,-73.86250970788659,ZCTA5 10467,35381.0
463,273,MOSHOLU PKWY, 10467,40.87974999947229,-73.88465499988732,ZCTA5 10467,35381.0
460,39,GUN HILL RD, 10467,40.87783938517202,-73.86613410538703,ZCTA5 10467,35381.0
459,274,205 STREET STATION, 10467,40.87481100011182,-73.87885499918691,ZCTA5 10467,35381.0
448,256,ALLERTON AV, 10467,40.86548337793927,-73.86723422851625,ZCTA5 10467,35381.0
455,275,BURKE AV STATION, 10467,40.871258802547715,-73.86705361747603,ZCTA5 10467,35381.0
393,172,145 ST, 10039,40.820420999692786,-73.93624499873299,ZCTA5 10039,34197.0
397,260,148TH STREET LENOX TERMINAL STATION, 10039,40.82388000080457,-73.93647000005559,ZCTA5 10039,34197.0
407,295,155 ST, 10039,40.830134999981205,-73.93820899811621,ZCTA5 10039,34197.0
359,32,96 STREET STATION, 10029,40.78567199998607,-73.9510700015425,ZCTA5 10029,34015.0
362,457,103 ST, 10029,40.790600000084524,-73.94747800152219,ZCTA5 10029,34015.0
365,449,110 ST, 10029,40.79502000011311,-73.94424999687162,ZCTA5 10029,34015.0
445,262,FORDHAM ROAD STATION, 10458,40.86129599868349,-73.89774900102401,ZCTA5 10458,32129.0
450,58,KINGSBRIDGE ROAD SUBWAY STATION, 10458,40.86697799999945,-73.89350900003309,ZCTA5 10458,32129.0
410,462,PARKCHESTER, 10472,40.833225999278596,-73.86081600108396,ZCTA5 10472,30593.0
404,248,ELDER AV, 10472,40.82858400108929,-73.87915899874777,ZCTA5 10472,30593.0
405,50,MORRISON AV- SOUNDVIEW, 10472,40.82952100156747,-73.87451599929486,ZCTA5 10472,30593.0
409,52,ST LAWRENCE AV, 10472,40.8315090005233,-73.86761799923674,ZCTA5 10472,30593.0
367,461,116 STREET STATION, 10035,40.7986290002001,-73.94161699837142,ZCTA5 10035,27932.0
373,467,125 STREET SUBWAY STATION, 10035,40.80413800058725,-73.93759400055725,ZCTA5 10035,27932.0
420,263,170 STREET STATION, 10452,40.84007499993004,-73.91779099745928,ZCTA5 10452,27206.0
426,261,MT EDEN AV STATION, 10452,40.84443400092679,-73.9146849986034,ZCTA5 10452,27206.0
418,175,170 STREET STATION, 10452,40.83930599964156,-73.91339999846983,ZCTA5 10452,27206.0
414,290,167 STREET STATION, 10452,40.83553699933672,-73.92139999784426,ZCTA5 10452,27206.0
411,21,167 STREET STATION, 10452,40.83376899862797,-73.91843200082253,ZCTA5 10452,27206.0
383,140,138 STREET STATION, 10451,40.81322399958908,-73.92984899935611,ZCTA5 10451,26979.0
390,46,149 ST - GRAND CONCOURSE, 10451,40.81830344372315,-73.9273847542618,ZCTA5 10451,26979.0
391,288,149 ST - GRAND CONCOURSE, 10451,40.81833014409742,-73.92672247438611,ZCTA5 10451,26979.0
403,47,161 ST - YANKEE STADIUM, 10451,40.828230327421686,-73.92569199505732,ZCTA5 10451,26979.0
402,296,161 ST - YANKEE STADIUM, 10451,40.82790499884585,-73.92565099775476,ZCTA5 10451,26979.0
424,284,E 180 STREET, 10460,40.8418630412186,-73.87334609510884,ZCTA5 10460,25948.0
421,271,WEST FARMS SQUARE - E TREMONT AV STATION, 10460,40.84020763241799,-73.87996127877184,ZCTA5 10460,25948.0
417,255,174 STREET STATION, 10460,40.837195550170605,-73.88769359812888,ZCTA5 10460,25948.0
394,88,HUNTS POINT AV, 10474,40.82094799852307,-73.89054900017344,ZCTA5 10474,25896.0
396,18,INTERVALE AV, 10459,40.822142131170786,-73.89661738461645,ZCTA5 10459,25762.0
398,42,SIMPSON ST, 10459,40.823976841237396,-73.89306639507903,ZCTA5 10459,25762.0
406,17,FREEMAN ST, 10459,40.829987446384116,-73.89175225349464,ZCTA5 10459,25762.0
400,51,WHITLOCK AV, 10459,40.82652500055904,-73.8862829985325,ZCTA5 10459,25762.0
386,289,3 AV - 149 ST, 10455,40.816029252510006,-73.91779152760982,ZCTA5 10455,25489.0
392,253,PROSPECT AV, 10455,40.819487264838436,-73.90177778730917,ZCTA5 10455,25489.0
382,49,E 149 ST, 10455,40.81211799827203,-73.90409799875945,ZCTA5 10455,25489.0
388,252,JACKSON AVENUE STATION, 10455,40.81643746686396,-73.9077019387083,ZCTA5 10455,25489.0
387,249,LONGWOOD AV STATION, 10455,40.816103999972405,-73.89643499897414,ZCTA5 10455,25489.0
433,170,TREMONT AV, 10453,40.85040999951024,-73.90522700122355,ZCTA5 10453,24421.0
441,406,183 STREET STATION, 10453,40.85840700040842,-73.9038790015153,ZCTA5 10453,24421.0
436,174,BURNSIDE AV STATION, 10453,40.85345300155693,-73.9076840015997,ZCTA5 10453,24421.0
430,173,176 ST / JEROME AV, 10453,40.848480001236894,-73.9117939988447,ZCTA5 10453,24421.0
427,20,174-175 ST STATION, 10453,40.84589999983414,-73.91013600050078,ZCTA5 10453,24421.0
439,19,182ND-183RD STS., 10453,40.85609299881864,-73.90074099998965,ZCTA5 10453,24421.0
380,26,3 AVENUE-138 STREET STATION, 10454,40.81047600117261,-73.92613800014135,ZCTA5 10454,21542.0
379,257,E 143 ST STATION, 10454,40.808719000901434,-73.90765699936489,ZCTA5 10454,21542.0
376,291,BROOK AV, 10454,40.80756599987699,-73.91923999909432,ZCTA5 10454,21542.0
375,254,CYPRESS AV, 10454,40.8053680007636,-73.91404199994753,ZCTA5 10454,21542.0
328,348,47-50 STREETS ROCKEFELLER CENTER STATION, 10020,40.75864100159815,-73.98133100227702,ZCTA5 10020,
